NORAD_CAT_ID,OBJECT_NAME,OBJECT_TYPE,EPOCH,MEAN_MOTION,ECCENTRICITY,INCLINATION,RA_OF_ASC_NODE,ARG_OF_PERICENTER,MEAN_ANOMALY,BSTAR,MEAN_MOTION_DOT,MEAN_MOTION_DDOT,TLE_LINE0,TLE_LINE1,TLE_LINE2,SEMIMAJOR_AXIS,PERIOD,APOGEE,PERIGEE,DECAYED
55674.0,STARLINK-5462,PAYLOAD,2023-04-01 05:19:16,15.69928727,0.0003231,70.0018,30.5627,264.1208,95.9619,3.9865e-05,4.584e-05,0.0,0 STARLINK-5462,1 55674U 23021AY  23091.22171557  .00004584  00000-0  39865-4 0  9996,2 55674  70.0018  30.5627 0003231 264.1208  95.9619 15.69928727  7204,6737.238,91.724,361.28,356.926,0.0
55674.0,STARLINK-5462,PAYLOAD,2023-04-01 20:36:47,15.69932859,0.0003437,70.0014,28.7719,266.5785,93.5018,7.3057e-05,8.584e-05,0.0,0 STARLINK-5462,1 55674U 23021AY  23091.85888344  .00008584  00000-0  73057-4 0  9999,2 55674  70.0014  28.7719 0003437 266.5785  93.5018 15.69932859  7618,6737.226,91.724,361.407,356.776,0.0
55674.0,STARLINK-5462,PAYLOAD,2023-04-02 05:47:18,15.69940219,0.0003348,70.0038,27.6995,270.0921,89.9891,8.8389e-05,0.00010436,0.0,0 STARLINK-5462,1 55674U 23021AY  23092.24118211  .00010436  00000-0  88389-4 0  9995,2 55674  70.0038  27.6995 0003348 270.0921  89.9891 15.69940219  7360,6737.205,91.723,361.326,356.814,0.0
55674.0,STARLINK-5462,PAYLOAD,2023-04-02 07:19:03,15.69917283,0.000298,70.0024,27.5186,276.4531,83.6326,-2.5626e-05,-3.291e-05,0.0,0 STARLINK-5462,1 55674U 23021AY  23092.30490356 -.00003291  00000-0 -25626-4 0  9993,2 55674  70.0024  27.5186 0002980 276.4531  83.6326 15.69917283  7374,6737.271,91.725,361.143,357.128,0.0
55674.0,STARLINK-5462,PAYLOAD,2023-04-03 04:43:35,15.69934387,0.0003625,70.0018,25.0111,265.9572,94.1209,0.00011521,0.00013669,0.0,0 STARLINK-5462,1 55674U 23021AY  23093.19693494  .00013669  00000-0  11521-3 0  9995,2 55674  70.0018  25.0111 0003625 265.9572  94.1209 15.69934387  7510,6737.222,91.724,361.529,356.644,0.0
55674.0,STARLINK-5462,PAYLOAD,2023-04-03 21:32:51,15.69926222,0.0003008,70.003,23.0395,267.8738,92.2113,0.00012811,0.0001522,0.0,0 STARLINK-5462,1 55674U 23021AY  23093.89782262  .00015220  00000-0  12811-3 0  9992,2 55674  70.0030  23.0395 0003008 267.8738  92.2113 15.69926222  7934,6737.245,91.724,361.137,357.084,0.0
55674.0,STARLINK-5462,PAYLOAD,2023-04-04 05:11:37,15.69935472,0.0003245,70.0032,22.1454,255.118,104.9656,9.6326e-05,0.00011391,0.0,0 STARLINK-5462,1 55674U 23021AY  23094.21640342  .00011391  00000-0  96326-4 0  9990,2 55674  70.0032  22.1454 0003245 255.1180 104.9656 15.69935472  7677,6737.219,91.724,361.27,356.897,0.0
55674.0,STARLINK-5462,PAYLOAD,2023-04-04 06:43:22,15.69939182,0.0003336,70.0029,21.9655,258.5036,101.5786,0.000105,0.00012439,0.0,0 STARLINK-5462,1 55674U 23021AY  23094.28011922  .00012439  00000-0  10500-3 0  9996,2 55674  70.0029  21.9655 0003336 258.5036 101.5786 15.69939182  7995,6737.208,91.723,361.321,356.825,0.0
55674.0,STARLINK-5462,PAYLOAD,2023-04-04 22:00:53,15.69933226,0.0002639,70.0047,20.1775,250.9191,109.1719,6.7094e-05,7.865e-05,0.0,0 STARLINK-5462,1 55674U 23021AY  23094.91728779  .00007865  00000-0  67094-4 0  9999,2 55674  70.0047  20.1775 0002639 250.9191 109.1719 15.69933226  8097,6737.225,91.724,360.868,357.312,0.0
55674.0,STARLINK-5462,PAYLOAD,2023-04-05 05:39:38,15.69932057,0.0003444,70.0024,19.2791,254.8109,105.2706,2.6363e-05,2.959e-05,0.0,0 STARLINK-5462,1 55674U 23021AY  23095.23586746  .00002959  00000-0  26363-4 0  9994,2 55674  70.0024  19.2791 0003444 254.8109 105.2706 15.69932057  7831,6737.228,91.724,361.414,356.773,0.0
55674.0,STARLINK-5462,PAYLOAD,2023-04-05 20:57:10,15.69933403,0.0003111,70.0034,17.4879,252.8776,107.2079,3.6652e-05,4.198e-05,0.0,0 STARLINK-5462,1 55674U 23021AY  23095.87303442  .00004198  00000-0  36652-4 0  9993,2 55674  70.0034  17.4879 0003111 252.8776 107.2079 15.69933403  8245,6737.225,91.724,361.185,356.994,0.0
55674.0,STARLINK-5462,PAYLOAD,2023-04-06 06:07:41,15.69925078,0.0003379,70.0022,16.4129,267.4219,92.659,1.2001e-05,1.231e-05,0.0,0 STARLINK-5462,1 55674U 23021AY  23096.25533715  .00001231  00000-0  12001-4 0  9991,2 55674  70.0022  16.4129 0003379 267.4219  92.6590 15.69925078  7994,6737.248,91.724,361.39,356.837,0.0
55674.0,STARLINK-5462,PAYLOAD,2023-04-07 05:03:58,15.69928511,0.0002995,70.0027,13.7269,260.6173,99.4684,2.3212e-05,2.58e-05,0.0,0 STARLINK-5462,1 55674U 23021AY  23097.21109013  .00002580  00000-0  23212-4 0  9992,2 55674  70.0027  13.7269 0002995 260.6173  99.4684 15.69928511  8457,6737.239,91.724,361.121,357.086,0.0
55674.0,STARLINK-5462,PAYLOAD,2023-04-08 04:00:14,15.69913428,0.0003657,70.0015,11.0379,264.2841,95.7938,-3.962e-05,-4.972e-05,0.0,0 STARLINK-5462,1 55674U 23021AY  23098.16683474 -.00004972  00000-0 -39620-4 0  9994,2 55674  70.0015  11.0379 0003657 264.2841  95.7938 15.69913428  8299,6737.282,91.725,361.611,356.683,0.0
55674.0,STARLINK-5462,PAYLOAD,2023-04-08 13:10:45,15.69905259,0.0003469,70.0014,9.9641,269.8292,90.2506,-4.263e-05,-5.331e-05,0.0,0 STARLINK-5462,1 55674U 23021AY  23098.54914269 -.00005331  00000-0 -42630-4 0  9990,2 55674  70.0014   9.9641 0003469 269.8292  90.2506 15.69905259  8663,6737.305,91.725,361.507,356.833,0.0
55674.0,STARLINK-5462,PAYLOAD,2023-04-09 02:56:31,15.69930361,0.0002789,70.0029,8.3512,270.4195,89.6681,9.9612e-06,9.86e-06,0.0,0 STARLINK-5462,1 55674U 23021AY  23099.12258950  .00000986  00000-0  99612-5 0  9995,2 55674  70.0029   8.3512 0002789 270.4195  89.6681 15.69930361  8447,6737.233,91.724,360.977,357.219,0.0
55674.0,STARLINK-5462,PAYLOAD,2023-04-09 21:17:33,15.69916325,0.0003093,70.0027,6.2058,236.495,123.5951,7.98e-05,9.39e-05,0.0,0 STARLINK-5462,1 55674U 23021AY  23099.88719588  .00009390  00000-0  79800-4 0  9991,2 55674  70.0027   6.2058 0003093 236.4950 123.5951 15.69916325  8876,6737.273,91.725,361.222,357.055,0.0
55674.0,STARLINK-5462,PAYLOAD,2023-04-10 03:24:33,15.69933097,0.0003746,70.0011,5.487,265.7583,94.3184,7.2409e-05,8.506e-05,0.0,0 STARLINK-5462,1 55674U 23021AY  23100.14205740  .00008506  00000-0  72409-4 0  9999,2 55674  70.0011   5.4870 0003746 265.7583  94.3184 15.69933097  8603,6737.225,91.724,361.614,356.567,0.0
55674.0,STARLINK-5462,PAYLOAD,2023-04-10 20:13:50,15.69932857,0.0003534,70.0002,3.5133,271.4079,88.6712,3.2891e-05,3.745e-05,0.0,0 STARLINK-5462,1 55674U 23021AY  23100.84294021  .00003745  00000-0  32891-4 0  9997,2 55674  70.0002   3.5133 0003534 271.4079  88.6712 15.69932857  8711,6737.226,91.724,361.472,356.71,0.0
55674.0,STARLINK-5462,PAYLOAD,2023-04-11 20:41:52,15.69923262,0.0003604,69.9994,0.6462,271.5716,88.5066,-6.4021e-07,-2.9e-06,0.0,0 STARLINK-5462,1 55674U 23021AY  23101.86241093 -.00000290  00000-0 -64021-6 0  9997,2 55674  69.9994   0.6462 0003604 271.5716  88.5066 15.69923262  9181,6737.254,91.724,361.547,356.69,0.0
55674.0,STARLINK-5462,PAYLOAD,2023-04-12 02:48:53,15.69907559,0.0003319,70.0012,359.9325,272.6192,87.4624,-3.064e-05,-3.893e-05,0.0,0 STARLINK-5462,1 55674U 23021AY  23102.11728394 -.00003893  00000-0 -30640-4 0  9990,2 55674  70.0012 359.9325 0003319 272.6192  87.4624 15.69907559  8915,6737.298,91.725,361.4,356.927,0.0
55674.0,STARLINK-5462,PAYLOAD,2023-04-13 03:16:54,15.6991362,0.0002208,70.0022,357.0676,296.4783,63.6186,-2.2772e-05,-2.947e-05,0.0,0 STARLINK-5462,1 55674U 23021AY  23103.13674379 -.00002947  00000-0 -22772-4 0  9992,2 55674  70.0022 357.0676 0002208 296.4783  63.6186 15.69913620  9387,6737.281,91.725,360.634,357.659,0.0
55674.0,STARLINK-5462,PAYLOAD,2023-04-13 20:06:11,15.69926882,0.0003815,70.0018,355.0963,269.5448,90.5311,-4.063e-06,-7.02e-06,0.0,0 STARLINK-5462,1 55674U 23021AY  23103.83762759 -.00000702  00000-0 -40630-5 0  9990,2 55674  70.0018 355.0963 0003815 269.5448  90.5311 15.69926882  9184,6737.243,91.724,361.678,356.538,0.0
55674.0,STARLINK-5462,PAYLOAD,2023-04-14 12:55:28,15.69920543,0.0003224,70.0015,353.1236,271.711,88.3716,1.0197e-05,1.013e-05,0.0,0 STARLINK-5462,1 55674U 23021AY  23104.53851857  .00001013  00000-0  10197-4 0  9994,2 55674  70.0015 353.1236 0003224 271.7110  88.3716 15.69920543  9607,6737.261,91.724,361.298,356.954,0.0
55674.0,STARLINK-5462,PAYLOAD,2023-04-14 15:58:58,15.69919346,0.000353,70.0005,352.7667,260.8286,99.2511,9.7812e-07,-9.5e-07,0.0,0 STARLINK-5462,1 55674U 23021AY  23104.66595153 -.00000095  00000-0  97812-6 0  9993,2 55674  70.0005 352.7667 0003530 260.8286  99.2511 15.69919346  9313,6737.265,91.724,361.508,356.751,0.0
55674.0,STARLINK-5462,PAYLOAD,2023-04-15 02:41:13,15.69921735,0.0003221,70.0003,351.5124,266.5466,93.5361,5.7379e-06,4.77e-06,0.0,0 STARLINK-5462,1 55674U 23021AY  23105.11196524  .00000477  00000-0  57379-5 0  9999,2 55674  70.0003 351.5124 0003221 266.5466  93.5361 15.69921735  9692,6737.258,91.724,361.293,356.953,0.0
55674.0,STARLINK-5462,PAYLOAD,2023-04-15 22:34:00,15.69939383,0.0003362,70.0007,349.184,264.8324,95.2488,4.4572e-05,5.153e-05,0.0,0 STARLINK-5462,1 55674U 23021AY  23105.94027783  .00005153  00000-0  44572-4 0  9996,2 55674  70.0007 349.1840 0003362 264.8324  95.2488 15.69939383  9512,6737.207,91.723,361.337,356.807,0.0
55674.0,STARLINK-5462,PAYLOAD,2023-04-16 13:51:32,15.69919176,0.0003088,70.0003,347.3922,263.6759,96.4085,8.241e-06,7.78e-06,0.0,0 STARLINK-5462,1 55674U 23021AY  23106.57745563  .00000778  00000-0  82410-5 0  9991,2 55674  70.0003 347.3922 0003088 263.6759  96.4085 15.69919176  9618,6737.265,91.724,361.211,357.05,0.0
55674.0,STARLINK-5462,PAYLOAD,2023-04-16 18:26:47,15.699219,0.0002935,70.0006,346.8547,260.9203,99.1661,1.614e-05,1.728e-05,0.0,0 STARLINK-5462,1 55674U 23021AY  23106.76860463  .00001728  00000-0  16140-4 0  9991,2 55674  70.0006 346.8547 0002935 260.9203  99.1661 15.69921900  9957,6737.257,91.724,361.1,357.145,0.0
55674.0,STARLINK-5462,PAYLOAD,2023-04-17 02:05:33,15.69910678,0.0003328,70.0002,345.9589,270.0333,90.0482,-3.3671e-05,-4.257e-05,0.0,0 STARLINK-5462,1 55674U 23021AY  23107.08719125 -.00004257  00000-0 -33671-4 0  9995,2 55674  70.0002 345.9589 0003328 270.0333  90.0482 15.69910678 10001,6737.29,91.725,361.397,356.912,0.0
